[{"OBJECT_NAME":"COSMOS 2530 (RODNIK-S 16)","OBJECT_ID":"2018-097A","EPOCH":"2026-03-09T23:05:33.897696","MEAN_MOTION":12.42877781,"ECCENTRICITY":0.00188059,"INCLINATION":82.5108,"RA_OF_ASC_NODE":283.8835,"ARG_OF_PERICENTER":252.1975,"MEAN_ANOMALY":107.7053,"EPHEMERIS_TYPE":0,"CLASSIFICATION_TYPE":"U","NORAD_CAT_ID":43751,"ELEMENT_SET_NO":999,"REV_AT_EPOCH":32996,"BSTAR":-0.0009028818,"MEAN_MOTION_DOT":-1.15e-6,"MEAN_MOTION_DDOT":0},{"OBJECT_NAME":"THORAD DELTA 1 DEB","OBJECT_ID":"1974-089EG","EPOCH":"2026-03-09T04:43:42.877056","MEAN_MOTION":12.48860637,"ECCENTRICITY":0.01497511,"INCLINATION":103.053,"RA_OF_ASC_NODE":336.8413,"ARG_OF_PERICENTER":184.1587,"MEAN_ANOMALY":334.0933,"EPHEMERIS_TYPE":0,"CLASSIFICATION_TYPE":"U","NORAD_CAT_ID":9989,"ELEMENT_SET_NO":999,"REV_AT_EPOCH":28901,"BSTAR":0.0093364809,"MEAN_MOTION_DOT":1.405e-5,"MEAN_MOTION_DDOT":0}]
